start=new Date('2023-01-03T00:00:00.000Z').valueOf();
sats=[{"MEAN_MOTION_DOT":"0.00003033","ECCENTRICITY":"0.00022790","TLE_LINE2":"2 53531  53.2153 250.4078 0002279  44.4342 315.6833 15.08836449 20745","BSTAR":"0.00020861000000","REV_AT_EPOCH":"2074","MEAN_MOTION_DDOT":"0.0000000000000","RA_OF_ASC_NODE":"250.4078","RCS_SIZE":"MEDIUM","TIME_SYSTEM":"UTC","INCLINATION":"53.2153","OBJECT_TYPE":"PAYLOAD","EPHEMERIS_TYPE":"0","COUNTRY_CODE":"US","PERIAPSIS":"538.180","GP_ID":"222067260","SITE":"AFETR","LAUNCH_DATE":"2022-08-19","ELEMENT_SET_NO":"999","OBJECT_NAME":"STARLINK-4487","PERIOD":"95.438","DECAY_DATE":null,"NORAD_CAT_ID":"53531","MEAN_MOTION":"15.08836449","EPOCH":"2023-01-02T17:15:16.028064","CLASSIFICATION_TYPE":"U","CENTER_NAME":"EARTH","MEAN_ANOMALY":"315.6833","OBJECT_ID":"2022-101E","REF_FRAME":"TEME","MEAN_ELEMENT_THEORY":"SGP4","FILE":"3729873","SEMIMAJOR_AXIS":"6917.891","APOAPSIS":"541.333","TLE_LINE1":"1 53531U 22101E   23002.71893551  .00003033  00000-0  20861-3 0  9998","ARG_OF_PERICENTER":"44.4342"},{"MEAN_MOTION_DOT":"0.00007031","ECCENTRICITY":"0.00018700","TLE_LINE2":"2 53532  53.2159 249.3738 0001870  54.0735 306.0431 15.08835064 20785","BSTAR":"0.00045947000000","MEAN_MOTION_DDOT":"0.0000000000000","REV_AT_EPOCH":"2078","RA_OF_ASC_NODE":"249.3738","RCS_SIZE":"LARGE","TIME_SYSTEM":"UTC","INCLINATION":"53.2159","OBJECT_TYPE":"PAYLOAD","EPHEMERIS_TYPE":"0","COUNTRY_CODE":"US","PERIAPSIS":"538.467","GP_ID":"222067486","SITE":"AFETR","LAUNCH_DATE":"2022-08-19","ELEMENT_SET_NO":"999","OBJECT_NAME":"STARLINK-4483","PERIOD":"95.438","NORAD_CAT_ID":"53532","DECAY_DATE":null,"MEAN_MOTION":"15.08835064","EPOCH":"2023-01-02T22:49:05.912832","CLASSIFICATION_TYPE":"U","CENTER_NAME":"EARTH","MEAN_ANOMALY":"306.0431","OBJECT_ID":"2022-101F","REF_FRAME":"TEME","FILE":"3729873","MEAN_ELEMENT_THEORY":"SGP4","APOAPSIS":"541.054","SEMIMAJOR_AXIS":"6917.895","TLE_LINE1":"1 53532U 22101F   23002.95076288  .00007031  00000-0  45947-3 0  9999","ARG_OF_PERICENTER":"54.0735"},{"BSTAR":"0.00035785000000","ECCENTRICITY":"0.00019800","MEAN_MOTION_DOT":"0.00005409","TLE_LINE2":"2 53533  53.2174 249.3836 0001980  49.5150 310.6014 15.08824263 20781","RCS_SIZE":"LARGE","TIME_SYSTEM":"UTC","MEAN_MOTION_DDOT":"0.0000000000000","REV_AT_EPOCH":"2078","RA_OF_ASC_NODE":"249.3836","PERIAPSIS":"538.424","COUNTRY_CODE":"US","GP_ID":"222066359","INCLINATION":"53.2174","EPHEMERIS_TYPE":"0","OBJECT_TYPE":"PAYLOAD","LAUNCH_DATE":"2022-08-19","ELEMENT_SET_NO":"999","SITE":"AFETR","DECAY_DATE":null,"NORAD_CAT_ID":"53533","CLASSIFICATION_TYPE":"U","MEAN_MOTION":"15.08824263","EPOCH":"2023-01-02T22:45:12.260448","OBJECT_NAME":"STARLINK-4493","PERIOD":"95.439","OBJECT_ID":"2022-101G","MEAN_ANOMALY":"310.6014","CENTER_NAME":"EARTH","APOAPSIS":"541.163","SEMIMAJOR_AXIS":"6917.928","MEAN_ELEMENT_THEORY":"SGP4","FILE":"3729873","REF_FRAME":"TEME","ARG_OF_PERICENTER":"49.5150","TLE_LINE1":"1 53533U 22101G   23002.94805857  .00005409  00000-0  35785-3 0  9997"},{"OBJECT_NAME":"STARLINK-4488","PERIOD":"95.438","DECAY_DATE":null,"NORAD_CAT_ID":"53534","MEAN_MOTION":"15.08837782","EPOCH":"2023-01-02T22:27:54.991296","CLASSIFICATION_TYPE":"U","CENTER_NAME":"EARTH","MEAN_ANOMALY":"330.6297","OBJECT_ID":"2022-101H","REF_FRAME":"TEME","SEMIMAJOR_AXIS":"6917.887","APOAPSIS":"541.382","FILE":"3729873","MEAN_ELEMENT_THEORY":"SGP4","ARG_OF_PERICENTER":"29.4828","TLE_LINE1":"1 53534U 22101H   23002.93605314  .00010860  00000-0  69938-3 0  9997","ECCENTRICITY":"0.00023560","MEAN_MOTION_DOT":"0.00010860","TLE_LINE2":"2 53534  53.2174 249.4369 0002356  29.4828 330.6297 15.08837782 20786","BSTAR":"0.00069938000000","REV_AT_EPOCH":"2078","MEAN_MOTION_DDOT":"0.0000000000000","RA_OF_ASC_NODE":"249.4369","RCS_SIZE":"LARGE","TIME_SYSTEM":"UTC","INCLINATION":"53.2174","EPHEMERIS_TYPE":"0","OBJECT_TYPE":"PAYLOAD","PERIAPSIS":"538.122","COUNTRY_CODE":"US","GP_ID":"222066585","SITE":"AFETR","LAUNCH_DATE":"2022-08-19","ELEMENT_SET_NO":"999"},{"MEAN_ANOMALY":"329.2870","OBJECT_ID":"2022-101J","CENTER_NAME":"EARTH","NORAD_CAT_ID":"53535","DECAY_DATE":null,"EPOCH":"2023-01-02T22:38:29.532768","MEAN_MOTION":"15.08844583","CLASSIFICATION_TYPE":"U","OBJECT_NAME":"STARLINK-4138","PERIOD":"95.437","ARG_OF_PERICENTER":"30.8253","TLE_LINE1":"1 53535U 22101J   23002.94339737  .00000771  00000-0  66570-4 0  9992","SEMIMAJOR_AXIS":"6917.866","APOAPSIS":"541.281","MEAN_ELEMENT_THEORY":"SGP4","FILE":"3729873","REF_FRAME":"TEME","RCS_SIZE":"LARGE","TIME_SYSTEM":"UTC","MEAN_MOTION_DDOT":"0.0000000000000","REV_AT_EPOCH":"2078","RA_OF_ASC_NODE":"249.4028","BSTAR":"0.00006657000000","ECCENTRICITY":"0.00022400","MEAN_MOTION_DOT":"0.00000771","TLE_LINE2":"2 53535  53.2187 249.4028 0002240  30.8253 329.2870 15.08844583 20781","LAUNCH_DATE":"2022-08-19","ELEMENT_SET_NO":"999","SITE":"AFETR","PERIAPSIS":"538.182","COUNTRY_CODE":"US","GP_ID":"222067711","INCLINATION":"53.2187","EPHEMERIS_TYPE":"0","OBJECT_TYPE":"PAYLOAD"},{"REF_FRAME":"TEME","SEMIMAJOR_AXIS":"6922.932","APOAPSIS":"546.354","MEAN_ELEMENT_THEORY":"SGP4","FILE":"3729873","ARG_OF_PERICENTER":"45.4931","TLE_LINE1":"1 53536U 22101K   23002.69315386  .00001127  00000-0  92681-4 0  9997","PERIOD":"95.542","OBJECT_NAME":"STARLINK-4053","MEAN_MOTION":"15.07188674","EPOCH":"2023-01-02T16:38:08.493504","CLASSIFICATION_TYPE":"U","NORAD_CAT_ID":"53536","DECAY_DATE":null,"CENTER_NAME":"EARTH","MEAN_ANOMALY":"314.6244","OBJECT_ID":"2022-101K","EPHEMERIS_TYPE":"0","OBJECT_TYPE":"PAYLOAD","INCLINATION":"53.2158","GP_ID":"222067936","PERIAPSIS":"543.241","COUNTRY_CODE":"US","SITE":"AFETR","ELEMENT_SET_NO":"999","LAUNCH_DATE":"2022-08-19","TLE_LINE2":"2 53536  53.2158 240.1683 0002248  45.4931 314.6244 15.07188674 20883","ECCENTRICITY":"0.00022480","MEAN_MOTION_DOT":"0.00001127","BSTAR":"0.00009268100000","RA_OF_ASC_NODE":"240.1683","MEAN_MOTION_DDOT":"0.0000000000000","REV_AT_EPOCH":"2088","TIME_SYSTEM":"UTC","RCS_SIZE":"LARGE"},{"INCLINATION":"53.2176","OBJECT_TYPE":"PAYLOAD","EPHEMERIS_TYPE":"0","COUNTRY_CODE":"US","PERIAPSIS":"538.367","GP_ID":"222066810","SITE":"AFETR","LAUNCH_DATE":"2022-08-19","ELEMENT_SET_NO":"999","MEAN_MOTION_DOT":"0.00013070","ECCENTRICITY":"0.00020260","TLE_LINE2":"2 53537  53.2176 249.3856 0002026  35.8856 324.2271 15.08832526 20789","BSTAR":"0.00083795000000","MEAN_MOTION_DDOT":"0.0000000000000","REV_AT_EPOCH":"2078","RA_OF_ASC_NODE":"249.3856","RCS_SIZE":"LARGE","TIME_SYSTEM":"UTC","REF_FRAME":"TEME","MEAN_ELEMENT_THEORY":"SGP4","FILE":"3729873","APOAPSIS":"541.170","SEMIMAJOR_AXIS":"6917.903","TLE_LINE1":"1 53537U 22101L   23002.94710211  .00013070  00000-0  83795-3 0  9997","ARG_OF_PERICENTER":"35.8856","OBJECT_NAME":"STARLINK-4120","PERIOD":"95.438","DECAY_DATE":null,"NORAD_CAT_ID":"53537","MEAN_MOTION":"15.08832526","CLASSIFICATION_TYPE":"U","EPOCH":"2023-01-02T22:43:49.622304","CENTER_NAME":"EARTH","MEAN_ANOMALY":"324.2271","OBJECT_ID":"2022-101L"},{"BSTAR":"0.00015790000000","TLE_LINE2":"2 53538  53.2147 239.4900 0002089  49.5987 310.5187 15.08841269 21604","MEAN_MOTION_DOT":"0.00002226","ECCENTRICITY":"0.00020890","TIME_SYSTEM":"UTC","RCS_SIZE":"LARGE","RA_OF_ASC_NODE":"239.4900","REV_AT_EPOCH":"2160","MEAN_MOTION_DDOT":"0.0000000000000","GP_ID":"222067035","COUNTRY_CODE":"US","PERIAPSIS":"538.296","OBJECT_TYPE":"PAYLOAD","EPHEMERIS_TYPE":"0","INCLINATION":"53.2147","ELEMENT_SET_NO":"999","LAUNCH_DATE":"2022-08-19","SITE":"AFETR","EPOCH":"2023-01-02T22:08:01.804704","MEAN_MOTION":"15.08841269","CLASSIFICATION_TYPE":"U","NORAD_CAT_ID":"53538","DECAY_DATE":null,"PERIOD":"95.437","OBJECT_NAME":"STARLINK-4118","OBJECT_ID":"2022-101M","MEAN_ANOMALY":"310.5187","CENTER_NAME":"EARTH","FILE":"3729873","MEAN_ELEMENT_THEORY":"SGP4","SEMIMAJOR_AXIS":"6917.877","APOAPSIS":"541.187","REF_FRAME":"TEME","TLE_LINE1":"1 53538U 22101M   23002.92224311  .00002226  00000-0  15790-3 0  9998","ARG_OF_PERICENTER":"49.5987"},{"REF_FRAME":"TEME","MEAN_ELEMENT_THEORY":"SGP4","FILE":"3729873","SEMIMAJOR_AXIS":"6917.843","APOAPSIS":"541.657","TLE_LINE1":"1 53539U 22101N   23002.93972863 -.00003318  00000-0 -19035-3 0  9993","ARG_OF_PERICENTER":"60.8800","OBJECT_NAME":"STARLINK-4123","PERIOD":"95.437","DECAY_DATE":null,"NORAD_CAT_ID":"53539","MEAN_MOTION":"15.08852365","CLASSIFICATION_TYPE":"U","EPOCH":"2023-01-02T22:33:12.553632","CENTER_NAME":"EARTH","OBJECT_ID":"2022-101N","MEAN_ANOMALY":"299.2474","INCLINATION":"53.2169","OBJECT_TYPE":"PAYLOAD","EPHEMERIS_TYPE":"0","COUNTRY_CODE":"US","PERIAPSIS":"537.758","GP_ID":"222067261","SITE":"AFETR","LAUNCH_DATE":"2022-08-19","ELEMENT_SET_NO":"999","MEAN_MOTION_DOT":"-0.00003318","ECCENTRICITY":"0.00028180","TLE_LINE2":"2 53539  53.2169 249.4230 0002818  60.8800 299.2474 15.08852365 20785","BSTAR":"-0.00019035000000","MEAN_MOTION_DDOT":"0.0000000000000","REV_AT_EPOCH":"2078","RA_OF_ASC_NODE":"249.4230","RCS_SIZE":"LARGE","TIME_SYSTEM":"UTC"},{"REF_FRAME":"TEME","SEMIMAJOR_AXIS":"6917.902","APOAPSIS":"541.192","MEAN_ELEMENT_THEORY":"SGP4","FILE":"3729873","ARG_OF_PERICENTER":"42.4311","TLE_LINE1":"1 53540U 22101P   23002.91857323 -.00000988  00000-0 -43994-4 0  9998","OBJECT_NAME":"STARLINK-4486","PERIOD":"95.438","DECAY_DATE":null,"NORAD_CAT_ID":"53540","MEAN_MOTION":"15.08833075","EPOCH":"2023-01-02T22:02:44.727072","CLASSIFICATION_TYPE":"U","CENTER_NAME":"EARTH","MEAN_ANOMALY":"317.6840","OBJECT_ID":"2022-101P","INCLINATION":"53.2150","EPHEMERIS_TYPE":"0","OBJECT_TYPE":"PAYLOAD","PERIAPSIS":"538.341","COUNTRY_CODE":"US","GP_ID":"222067487","SITE":"AFETR","LAUNCH_DATE":"2022-08-19","ELEMENT_SET_NO":"999","ECCENTRICITY":"0.00020600","MEAN_MOTION_DOT":"-0.00000988","TLE_LINE2":"2 53540  53.2150 239.5056 0002060  42.4311 317.6840 15.08833075 21606","BSTAR":"-0.00004399400000","MEAN_MOTION_DDOT":"0.0000000000000","REV_AT_EPOCH":"2160","RA_OF_ASC_NODE":"239.5056","RCS_SIZE":"LARGE","TIME_SYSTEM":"UTC"}];
